[
    {
        "Altitude(m)": 573573.3932454877,
        "Argument of Periapsis(deg)": -0.022603160782972403,
        "Eccentricity": 0.0,
        "Inclination(deg)": 97.0,
        "Latitude(deg)": 59.81152280686822,
        "Longitude(deg)": -24.462088263832428,
        "Mean Anomaly(deg)": 60.479743269187495,
        "RAAN(deg)": 90.0059470536185,
        "Satellite Name": "Starlink Shell 3 1762",
        "Satellite Number": 1762,
        "Semi-Major Axis(m)": 6938478.169268562,
        "Time(s)": 570
    },
    {
        "Altitude(m)": 573700.6585433664,
        "Argument of Periapsis(deg)": -0.02299970746337543,
        "Eccentricity": 0.0,
        "Inclination(deg)": 97.0,
        "Latitude(deg)": 60.416954013312264,
        "Longitude(deg)": -24.808540987038395,
        "Mean Anomaly(deg)": 61.10521946689254,
        "RAAN(deg)": 90.00605138789253,
        "Satellite Name": "Starlink Shell 3 1762",
        "Satellite Number": 1762,
        "Semi-Major Axis(m)": 6938478.169268562,
        "Time(s)": 580
    },
    {
        "Altitude(m)": 573826.4158532962,
        "Argument of Periapsis(deg)": -0.023396254143778456,
        "Eccentricity": 0.0,
        "Inclination(deg)": 97.0,
        "Latitude(deg)": 61.02159944614339,
        "Longitude(deg)": -25.166514325332603,
        "Mean Anomaly(deg)": 61.73069566459757,
        "RAAN(deg)": 90.00615572216653,
        "Satellite Name": "Starlink Shell 3 1762",
        "Satellite Number": 1762,
        "Semi-Major Axis(m)": 6938478.169268562,
        "Time(s)": 590
    },
    {
        "Altitude(m)": 573950.5917977542,
        "Argument of Periapsis(deg)": -0.023792800824181483,
        "Eccentricity": 0.0,
        "Inclination(deg)": 97.0,
        "Latitude(deg)": 61.62541369607049,
        "Longitude(deg)": -25.53673378519936,
        "Mean Anomaly(deg)": 62.35617186230261,
        "RAAN(deg)": 90.00626005644054,
        "Satellite Name": "Starlink Shell 3 1762",
        "Satellite Number": 1762,
        "Semi-Major Axis(m)": 6938478.169268562,
        "Time(s)": 600
    },
    {
        "Altitude(m)": 574073.1140455813,
        "Argument of Periapsis(deg)": -0.024189347504584503,
        "Eccentricity": 0.0,
        "Inclination(deg)": 97.0,
        "Latitude(deg)": 62.228347437451006,
        "Longitude(deg)": -25.91998500199709,
        "Mean Anomaly(deg)": 62.98164806000766,
        "RAAN(deg)": 90.00636439071454,
        "Satellite Name": "Starlink Shell 3 1762",
        "Satellite Number": 1762,
        "Semi-Major Axis(m)": 6938478.169268562,
        "Time(s)": 610
    },
    {
        "Altitude(m)": 574193.9113470003,
        "Argument of Periapsis(deg)": -0.02458589418498753,
        "Eccentricity": 0.0,
        "Inclination(deg)": 97.0,
        "Latitude(deg)": 62.83034700436051,
        "Longitude(deg)": -26.317119443029235,
        "Mean Anomaly(deg)": 63.60712425771271,
        "RAAN(deg)": 90.00646872498854,
        "Satellite Name": "Starlink Shell 3 1762",
        "Satellite Number": 1762,
        "Semi-Major Axis(m)": 6938478.169268562,
        "Time(s)": 620
    },
    {
        "Altitude(m)": 574312.9135680773,
        "Argument of Periapsis(deg)": -0.024982440865390556,
        "Eccentricity": 0.0,
        "Inclination(deg)": 97.0,
        "Latitude(deg)": 63.431353912124095,
        "Longitude(deg)": -26.729062551194943,
        "Mean Anomaly(deg)": 64.23260045541772,
        "RAAN(deg)": 90.00657305926256,
        "Satellite Name": "Starlink Shell 3 1762",
        "Satellite Number": 1762,
        "Semi-Major Axis(m)": 6938478.169268562,
        "Time(s)": 630
    },
    {
        "Altitude(m)": 574430.0517246018,
        "Argument of Periapsis(deg)": -0.025378987545793576,
        "Eccentricity": 0.0,
        "Inclination(deg)": 97.0,
        "Latitude(deg)": 64.03130431614359,
        "Longitude(deg)": -27.156820233059307,
        "Mean Anomaly(deg)": 64.85807665312278,
        "RAAN(deg)": 90.00667739353656,
        "Satellite Name": "Starlink Shell 3 1762",
        "Satellite Number": 1762,
        "Semi-Major Axis(m)": 6938478.169268562,
        "Time(s)": 640
    },
    {
        "Altitude(m)": 574545.2580153553,
        "Argument of Periapsis(deg)": -0.025775534226196602,
        "Eccentricity": 0.0,
        "Inclination(deg)": 97.0,
        "Latitude(deg)": 64.63012839844383,
        "Longitude(deg)": -27.601488856899287,
        "Mean Anomaly(deg)": 65.48355285082785,
        "RAAN(deg)": 90.00678172781058,
        "Satellite Name": "Starlink Shell 3 1762",
        "Satellite Number": 1762,
        "Semi-Major Axis(m)": 6938478.169268562,
        "Time(s)": 650
    },
    {
        "Altitude(m)": 574658.465854769,
        "Argument of Periapsis(deg)": -0.026172080906599626,
        "Eccentricity": 0.0,
        "Inclination(deg)": 97.0,
        "Latitude(deg)": 65.22774967072554,
        "Longitude(deg)": -28.064264700031487,
        "Mean Anomaly(deg)": 66.1090290485329,
        "RAAN(deg)": 90.0068860620846,
        "Satellite Name": "Starlink Shell 3 1762",
        "Satellite Number": 1762,
        "Semi-Major Axis(m)": 6938478.169268562,
        "Time(s)": 660
    },
    {
        "Altitude(m)": 574769.6099049665,
        "Argument of Periapsis(deg)": -0.026568627587002652,
        "Eccentricity": 0.0,
        "Inclination(deg)": 97.0,
        "Latitude(deg)": 65.82408418072649,
        "Longitude(deg)": -28.54645469027937,
        "Mean Anomaly(deg)": 66.73450524623792,
        "RAAN(deg)": 90.0069903963586,
        "Satellite Name": "Starlink Shell 3 1762",
        "Satellite Number": 1762,
        "Semi-Major Axis(m)": 6938478.169268562,
        "Time(s)": 670
    },
    {
        "Altitude(m)": 574878.6261071444,
        "Argument of Periapsis(deg)": -0.02696517426740568,
        "Eccentricity": 0.0,
        "Inclination(deg)": 97.0,
        "Latitude(deg)": 66.41903960634117,
        "Longitude(deg)": -29.049490144075985,
        "Mean Anomaly(deg)": 67.35998144394298,
        "RAAN(deg)": 90.0070947306326,
        "Satellite Name": "Starlink Shell 3 1762",
        "Satellite Number": 1762,
        "Semi-Major Axis(m)": 6938478.169268562,
        "Time(s)": 680
    },
    {
        "Altitude(m)": 574985.4517123054,
        "Argument of Periapsis(deg)": -0.0273617209478087,
        "Eccentricity": 0.0,
        "Inclination(deg)": 97.0,
        "Latitude(deg)": 67.01251421913537,
        "Longitude(deg)": -29.574940694921843,
        "Mean Anomaly(deg)": 67.985457641648,
        "RAAN(deg)": 90.00719906490663,
        "Satellite Name": "Starlink Shell 3 1762",
        "Satellite Number": 1762,
        "Semi-Major Axis(m)": 6938478.169268562,
        "Time(s)": 690
    },
    {
        "Altitude(m)": 575090.0253113505,
        "Argument of Periapsis(deg)": -0.027758267628211725,
        "Eccentricity": 0.0,
        "Inclination(deg)": 97.0,
        "Latitude(deg)": 67.60439569551076,
        "Longitude(deg)": -30.124530179017107,
        "Mean Anomaly(deg)": 68.61093383935307,
        "RAAN(deg)": 90.00730339918063,
        "Satellite Name": "Starlink Shell 3 1762",
        "Satellite Number": 1762,
        "Semi-Major Axis(m)": 6938478.169268562,
        "Time(s)": 700
    },
    {
        "Altitude(m)": 575192.2868644572,
        "Argument of Periapsis(deg)": -0.028154814308614752,
        "Eccentricity": 0.0,
        "Inclination(deg)": 97.0,
        "Latitude(deg)": 68.19455974971493,
        "Longitude(deg)": -30.70015628459423,
        "Mean Anomaly(deg)": 69.23641003705809,
        "RAAN(deg)": 90.00740773345464,
        "Satellite Name": "Starlink Shell 3 1762",
        "Satellite Number": 1762,
        "Semi-Major Axis(m)": 6938478.169268562,
        "Time(s)": 710
    },
    {
        "Altitude(m)": 575292.1777297836,
        "Argument of Periapsis(deg)": -0.02855136098901778,
        "Eccentricity": 0.0,
        "Inclination(deg)": 97.0,
        "Latitude(deg)": 68.7828685580273,
        "Longitude(deg)": -31.303911278346522,
        "Mean Anomaly(deg)": 69.86188623476313,
        "RAAN(deg)": 90.00751206772864,
        "Satellite Name": "Starlink Shell 3 1762",
        "Satellite Number": 1762,
        "Semi-Major Axis(m)": 6938478.169268562,
        "Time(s)": 720
    },
    {
        "Altitude(m)": 575389.6406914858,
        "Argument of Periapsis(deg)": -0.028947907669420805,
        "Eccentricity": 0.0,
        "Inclination(deg)": 97.0,
        "Latitude(deg)": 69.3691689375697,
        "Longitude(deg)": -31.938105712615418,
        "Mean Anomaly(deg)": 70.48736243246819,
        "RAAN(deg)": 90.00761640200267,
        "Satellite Name": "Starlink Shell 3 1762",
        "Satellite Number": 1762,
        "Semi-Major Axis(m)": 6938478.169268562,
        "Time(s)": 730
    },
    {
        "Altitude(m)": 575484.6199870077,
        "Argument of Periapsis(deg)": -0.029344454349823825,
        "Eccentricity": 0.0,
        "Inclination(deg)": 97.0,
        "Latitude(deg)": 69.95329023612285,
        "Longitude(deg)": -32.605297075044184,
        "Mean Anomaly(deg)": 71.11283863017321,
        "RAAN(deg)": 90.00772073627667,
        "Satellite Name": "Starlink Shell 3 1762",
        "Satellite Number": 1762,
        "Semi-Major Axis(m)": 6938478.169268562,
        "Time(s)": 740
    },
    {
        "Altitude(m)": 575577.0613336378,
        "Argument of Periapsis(deg)": -0.029741001030226845,
        "Eccentricity": 0.0,
        "Inclination(deg)": 97.0,
        "Latitude(deg)": 70.53504188081453,
        "Longitude(deg)": -33.308320867977535,
        "Mean Anomaly(deg)": 71.73831482787828,
        "RAAN(deg)": 90.00782507055067,
        "Satellite Name": "Starlink Shell 3 1762",
        "Satellite Number": 1762,
        "Semi-Major Axis(m)": 6938478.169268562,
        "Time(s)": 750
    }
]